STARLINK-32236          
1 60418U 24141W   26068.70539097 -.00000252  00000+0  36156-5 0  9998
2 60418  53.1597 242.4669 0000921  88.9294 271.1812 15.30194505 89581
TEVEL2-9                
1 63237U 25052AD  26068.70229538  .00018694  00000+0  67240-3 0  9992
2 63237  97.4057 324.3929 0007990 124.2475 235.9522 15.28633834 54816
